TROLL                   
1 62658U 25009BB  26068.22522958  .00013174  00000+0  48220-3 0  9994
2 62658  97.3932 150.7169 0001816  59.1850 300.9568 15.28164315118170
STARLINK-32942          
1 63120U 25039S   26068.20548076  .00032645  00000+0  11895-2 0  9990
2 63120  43.0008  15.4353 0001322 243.2602 116.8114 15.27610357 57996
